CCSDS_OMM_VERS = 2.0
CREATION_DATE  = 
ORIGINATOR     = 

OBJECT_NAME    = ALOS-2
OBJECT_ID      = 2014-029A
CENTER_NAME    = EARTH
REF_FRAME      = TEME
TIME_SYSTEM    = UTC
MEAN_ELEMENT_THEORY = SGP/SGP4

EPOCH          = 2026-03-31T05:25:26.058720
MEAN_MOTION    = 14.79459863
ECCENTRICITY   = .0001941
INCLINATION    = 97.9192
RA_OF_ASC_NODE = 188.5102
ARG_OF_PERICENTER = 104.9941
MEAN_ANOMALY   = 255.1485

EPHEMERIS_TYPE = 0
CLASSIFICATION_TYPE = U
NORAD_CAT_ID   = 39766
ELEMENT_SET_NO = 999
REV_AT_EPOCH   = 64005
BSTAR          = .4716E-3
MEAN_MOTION_DOT = .3471E-4
MEAN_MOTION_DDOT = 0

CCSDS_OMM_VERS = 2.0
CREATION_DATE  = 
ORIGINATOR     = 

OBJECT_NAME    = YAOGAN-29
OBJECT_ID      = 2015-069A
CENTER_NAME    = EARTH
REF_FRAME      = TEME
TIME_SYSTEM    = UTC
MEAN_ELEMENT_THEORY = SGP/SGP4

EPOCH          = 2026-03-31T04:23:29.522112
MEAN_MOTION    = 14.83021006
ECCENTRICITY   = .00003
INCLINATION    = 98.0114
RA_OF_ASC_NODE = 118.6676
ARG_OF_PERICENTER = 0.5362
MEAN_ANOMALY   = 359.5852

EPHEMERIS_TYPE = 0
CLASSIFICATION_TYPE = U
NORAD_CAT_ID   = 41038
ELEMENT_SET_NO = 999
REV_AT_EPOCH   = 55906
BSTAR          = .13865E-3
MEAN_MOTION_DOT = .1073E-4
MEAN_MOTION_DDOT = 0

CCSDS_OMM_VERS = 2.0
CREATION_DATE  = 
ORIGINATOR     = 

OBJECT_NAME    = ASTRO-H (HITOMI)
OBJECT_ID      = 2016-012A
CENTER_NAME    = EARTH
REF_FRAME      = TEME
TIME_SYSTEM    = UTC
MEAN_ELEMENT_THEORY = SGP/SGP4

EPOCH          = 2026-03-31T01:12:33.829920
MEAN_MOTION    = 15.10141465
ECCENTRICITY   = .0009612
INCLINATION    = 30.9991
RA_OF_ASC_NODE = 218.6867
ARG_OF_PERICENTER = 186.7898
MEAN_ANOMALY   = 173.2610

EPHEMERIS_TYPE = 0
CLASSIFICATION_TYPE = U
NORAD_CAT_ID   = 41337
ELEMENT_SET_NO = 999
REV_AT_EPOCH   = 55546
BSTAR          = .25237E-3
MEAN_MOTION_DOT = .4317E-4
MEAN_MOTION_DDOT = 0

CCSDS_OMM_VERS = 2.0
CREATION_DATE  = 
ORIGINATOR     = 

OBJECT_NAME    = HXMT (HUIYAN)
OBJECT_ID      = 2017-034A
CENTER_NAME    = EARTH
REF_FRAME      = TEME
TIME_SYSTEM    = UTC
MEAN_ELEMENT_THEORY = SGP/SGP4

EPOCH          = 2026-03-30T21:43:03.434304
MEAN_MOTION    = 15.17732002
ECCENTRICITY   = .0031601
INCLINATION    = 43.0134
RA_OF_ASC_NODE = 258.7012
ARG_OF_PERICENTER = 6.3762
MEAN_ANOMALY   = 353.7483

EPHEMERIS_TYPE = 0
CLASSIFICATION_TYPE = U
NORAD_CAT_ID   = 42758
ELEMENT_SET_NO = 999
REV_AT_EPOCH   = 48576
BSTAR          = .36086E-3
MEAN_MOTION_DOT = .7273E-4
MEAN_MOTION_DDOT = 0

CCSDS_OMM_VERS = 2.0
CREATION_DATE  = 
ORIGINATOR     = 

OBJECT_NAME    = SAOCOM 1A
OBJECT_ID      = 2018-076A
CENTER_NAME    = EARTH
REF_FRAME      = TEME
TIME_SYSTEM    = UTC
MEAN_ELEMENT_THEORY = SGP/SGP4

EPOCH          = 2026-03-31T03:52:19.770816
MEAN_MOTION    = 14.82165806
ECCENTRICITY   = .0001471
INCLINATION    = 97.8902
RA_OF_ASC_NODE = 278.0311
ARG_OF_PERICENTER = 85.0278
MEAN_ANOMALY   = 275.1103

EPHEMERIS_TYPE = 0
CLASSIFICATION_TYPE = U
NORAD_CAT_ID   = 43641
ELEMENT_SET_NO = 999
REV_AT_EPOCH   = 40454
BSTAR          = .13925E-3
MEAN_MOTION_DOT = .1057E-4
MEAN_MOTION_DDOT = 0

CCSDS_OMM_VERS = 2.0
CREATION_DATE  = 
ORIGINATOR     = 

OBJECT_NAME    = H-2A R/B
OBJECT_ID      = 2018-084L
CENTER_NAME    = EARTH
REF_FRAME      = TEME
TIME_SYSTEM    = UTC
MEAN_ELEMENT_THEORY = SGP/SGP4

EPOCH          = 2026-03-31T03:35:36.842208
MEAN_MOTION    = 15.42271055
ECCENTRICITY   = .0023595
INCLINATION    = 98.8702
RA_OF_ASC_NODE = 312.1374
ARG_OF_PERICENTER = 310.1260
MEAN_ANOMALY   = 49.7915

EPHEMERIS_TYPE = 0
CLASSIFICATION_TYPE = U
NORAD_CAT_ID   = 43682
ELEMENT_SET_NO = 999
REV_AT_EPOCH   = 40908
BSTAR          = .55615E-3
MEAN_MOTION_DOT = .24094E-3
MEAN_MOTION_DDOT = 0

CCSDS_OMM_VERS = 2.0
CREATION_DATE  = 
ORIGINATOR     = 

OBJECT_NAME    = SAOCOM 1B
OBJECT_ID      = 2020-059A
CENTER_NAME    = EARTH
REF_FRAME      = TEME
TIME_SYSTEM    = UTC
MEAN_ELEMENT_THEORY = SGP/SGP4

EPOCH          = 2026-03-31T04:37:19.534944
MEAN_MOTION    = 14.82157487
ECCENTRICITY   = .0001475
INCLINATION    = 97.8888
RA_OF_ASC_NODE = 277.1591
ARG_OF_PERICENTER = 84.7200
MEAN_ANOMALY   = 275.4181

EPHEMERIS_TYPE = 0
CLASSIFICATION_TYPE = U
NORAD_CAT_ID   = 46265
ELEMENT_SET_NO = 999
REV_AT_EPOCH   = 30193
BSTAR          = .37245E-4
MEAN_MOTION_DOT = .244E-5
MEAN_MOTION_DDOT = 0

CCSDS_OMM_VERS = 2.0
CREATION_DATE  = 
ORIGINATOR     = 

OBJECT_NAME    = CSS (TIANHE)
OBJECT_ID      = 2021-035A
CENTER_NAME    = EARTH
REF_FRAME      = TEME
TIME_SYSTEM    = UTC
MEAN_ELEMENT_THEORY = SGP/SGP4

EPOCH          = 2026-03-31T03:29:08.838816
MEAN_MOTION    = 15.61737938
ECCENTRICITY   = .0003732
INCLINATION    = 41.4666
RA_OF_ASC_NODE = 77.5044
ARG_OF_PERICENTER = 76.0668
MEAN_ANOMALY   = 284.0586

EPHEMERIS_TYPE = 0
CLASSIFICATION_TYPE = U
NORAD_CAT_ID   = 48274
ELEMENT_SET_NO = 999
REV_AT_EPOCH   = 28096
BSTAR          = .31487E-3
MEAN_MOTION_DOT = .27765E-3
MEAN_MOTION_DDOT = 0

CCSDS_OMM_VERS = 2.0
CREATION_DATE  = 
ORIGINATOR     = 

OBJECT_NAME    = COSMOS 2550
OBJECT_ID      = 2021-056A
CENTER_NAME    = EARTH
REF_FRAME      = TEME
TIME_SYSTEM    = UTC
MEAN_ELEMENT_THEORY = SGP/SGP4

EPOCH          = 2026-03-28T11:49:31.757952
MEAN_MOTION    = 15.33828274
ECCENTRICITY   = .000844
INCLINATION    = 67.1421
RA_OF_ASC_NODE = 344.0047
ARG_OF_PERICENTER = 269.5686
MEAN_ANOMALY   = 90.4502

EPHEMERIS_TYPE = 0
CLASSIFICATION_TYPE = U
NORAD_CAT_ID   = 48865
ELEMENT_SET_NO = 999
REV_AT_EPOCH   = 26634
BSTAR          = .189685E-6
MEAN_MOTION_DOT = -.186E-5
MEAN_MOTION_DDOT = 0

CCSDS_OMM_VERS = 2.0
CREATION_DATE  = 
ORIGINATOR     = 

OBJECT_NAME    = CZ-2C R/B
OBJECT_ID      = 2022-058K
CENTER_NAME    = EARTH
REF_FRAME      = TEME
TIME_SYSTEM    = UTC
MEAN_ELEMENT_THEORY = SGP/SGP4

EPOCH          = 2026-03-31T00:56:53.308032
MEAN_MOTION    = 15.55862879
ECCENTRICITY   = .0041396
INCLINATION    = 50.1883
RA_OF_ASC_NODE = 208.3348
ARG_OF_PERICENTER = 292.4161
MEAN_ANOMALY   = 67.2428

EPHEMERIS_TYPE = 0
CLASSIFICATION_TYPE = U
NORAD_CAT_ID   = 52794
ELEMENT_SET_NO = 999
REV_AT_EPOCH   = 21345
BSTAR          = .66689E-3
MEAN_MOTION_DOT = .48749E-3
MEAN_MOTION_DDOT = 0

CCSDS_OMM_VERS = 2.0
CREATION_DATE  = 
ORIGINATOR     = 

OBJECT_NAME    = CZ-2C R/B
OBJECT_ID      = 2022-132E
CENTER_NAME    = EARTH
REF_FRAME      = TEME
TIME_SYSTEM    = UTC
MEAN_ELEMENT_THEORY = SGP/SGP4

EPOCH          = 2026-03-30T22:47:17.789280
MEAN_MOTION    = 15.63868072
ECCENTRICITY   = .0016996
INCLINATION    = 97.2953
RA_OF_ASC_NODE = 93.9433
ARG_OF_PERICENTER = 21.3717
MEAN_ANOMALY   = 338.8249

EPHEMERIS_TYPE = 0
CLASSIFICATION_TYPE = U
NORAD_CAT_ID   = 54039
ELEMENT_SET_NO = 999
REV_AT_EPOCH   = 19369
BSTAR          = .52403E-3
MEAN_MOTION_DOT = .49591E-3
MEAN_MOTION_DDOT = 0

CCSDS_OMM_VERS = 2.0
CREATION_DATE  = 
ORIGINATOR     = 

OBJECT_NAME    = GSLV R/B
OBJECT_ID      = 2022-138AN
CENTER_NAME    = EARTH
REF_FRAME      = TEME
TIME_SYSTEM    = UTC
MEAN_ELEMENT_THEORY = SGP/SGP4

EPOCH          = 2026-03-31T04:19:50.360736
MEAN_MOTION    = 14.96909758
ECCENTRICITY   = .0023974
INCLINATION    = 87.3858
RA_OF_ASC_NODE = 159.1675
ARG_OF_PERICENTER = 75.9566
MEAN_ANOMALY   = 284.4328

EPHEMERIS_TYPE = 0
CLASSIFICATION_TYPE = U
NORAD_CAT_ID   = 54149
ELEMENT_SET_NO = 999
REV_AT_EPOCH   = 18714
BSTAR          = .29756E-3
MEAN_MOTION_DOT = .3462E-4
MEAN_MOTION_DDOT = 0

