ALOS-2                  
1 39766U 14029A   26090.22599605  .00003471  00000+0  47160-3 0  9997
2 39766  97.9192 188.5102 0001941 104.9941 255.1485 14.79459863640059
YAOGAN-29               
1 41038U 15069A   26090.18298058  .00001073  00000+0  13865-3 0  9991
2 41038  98.0114 118.6676 0000300   0.5362 359.5852 14.83021006559062
ASTRO-H (HITOMI)        
1 41337U 16012A   26090.05039155  .00004317  00000+0  25237-3 0  9999
2 41337  30.9991 218.6867 0009612 186.7898 173.2610 15.10141465555467
HXMT (HUIYAN)           
1 42758U 17034A   26089.90490086  .00007273  00000+0  36086-3 0  9996
2 42758  43.0134 258.7012 0031601   6.3762 353.7483 15.17732002485764
SAOCOM 1A               
1 43641U 18076A   26090.16133994  .00001057  00000+0  13925-3 0  9998
2 43641  97.8902 278.0311 0001471  85.0278 275.1103 14.82165806404547
H-2A R/B                
1 43682U 18084L   26090.14973197  .00024094  00000+0  55615-3 0  9995
2 43682  98.8702 312.1374 0023595 310.1260  49.7915 15.42271055409085
SAOCOM 1B               
1 46265U 20059A   26090.19258721  .00000244  00000+0  37245-4 0  9995
2 46265  97.8888 277.1591 0001475  84.7200 275.4181 14.82157487301934
CSS (TIANHE)            
1 48274U 21035A   26090.14524119  .00027765  00000+0  31487-3 0  9992
2 48274  41.4666  77.5044 0003732  76.0668 284.0586 15.61737938280967
COSMOS 2550             
1 48865U 21056A   26087.49272868 -.00000186  00000+0  18968-6 0  9997
2 48865  67.1421 344.0047 0008440 269.5686  90.4502 15.33828274266348
CZ-2C R/B               
1 52794U 22058K   26090.03950588  .00048749  00000+0  66689-3 0  9998
2 52794  50.1883 208.3348 0041396 292.4161  67.2428 15.55862879213450
CZ-2C R/B               
1 54039U 22132E   26089.94951145  .00049591  00000+0  52403-3 0  9998
2 54039  97.2953  93.9433 0016996  21.3717 338.8249 15.63868072193692
GSLV R/B                
1 54149U 22138AN  26090.18044399  .00003462  00000+0  29756-3 0  9990
2 54149  87.3858 159.1675 0023974  75.9566 284.4328 14.96909758187141
